[{"OBJECT_NAME":"STARLINK-34544","OBJECT_ID":"2025-152Z","EPOCH":"2026-03-09T13:49:52.320000","MEAN_MOTION":15.05666765,"ECCENTRICITY":0.000241,"INCLINATION":97.6018,"RA_OF_ASC_NODE":285.4458,"ARG_OF_PERICENTER":90.4646,"MEAN_ANOMALY":269.6857,"EPHEMERIS_TYPE":0,"CLASSIFICATION_TYPE":"U","NORAD_CAT_ID":64865,"ELEMENT_SET_NO":999,"REV_AT_EPOCH":3540,"BSTAR":0.00022307,"MEAN_MOTION_DOT":3.161e-5,"MEAN_MOTION_DDOT":0},{"OBJECT_NAME":"OBJECT H","OBJECT_ID":"2017-042H","EPOCH":"2026-03-09T21:54:40.929408","MEAN_MOTION":15.07257911,"ECCENTRICITY":0.00117342,"INCLINATION":97.4058,"RA_OF_ASC_NODE":233.05,"ARG_OF_PERICENTER":93.954,"MEAN_ANOMALY":266.303,"EPHEMERIS_TYPE":0,"CLASSIFICATION_TYPE":"U","NORAD_CAT_ID":42832,"ELEMENT_SET_NO":999,"REV_AT_EPOCH":47198,"BSTAR":0.00041037265,"MEAN_MOTION_DOT":6.138e-5,"MEAN_MOTION_DDOT":0}]
